start=new Date('2023-07-03T00:00:00.000Z').valueOf();
sats=[{"PERIOD":"95.437","CLASSIFICATION_TYPE":"U","EPOCH":"2023-07-02T15:28:43.165920","OBJECT_TYPE":"PAYLOAD","NORAD_CAT_ID":"49409","SEMIMAJOR_AXIS":"6917.870","MEAN_MOTION":"15.08843272","REF_FRAME":"TEME","BSTAR":"0.00010842000000","ARG_OF_PERICENTER":"88.4305","MEAN_MOTION_DOT":"0.00001438","CENTER_NAME":"EARTH","ECCENTRICITY":"0.00007700","FILE":"3947881","TIME_SYSTEM":"UTC","ELEMENT_SET_NO":"999","GP_ID":"234677521","TLE_LINE1":"1 49409U 21104B   23183.64494405  .00001438  00000-0  10842-3 0  9991","COUNTRY_CODE":"US","APOAPSIS":"540.268","INCLINATION":"53.2182","DECAY_DATE":null,"PERIAPSIS":"539.203","TLE_LINE2":"2 49409  53.2182 313.2015 0000770  88.4305 271.6775 15.08843272 91618","MEAN_ELEMENT_THEORY":"SGP4","EPHEMERIS_TYPE":"0","REV_AT_EPOCH":"9161","MEAN_MOTION_DDOT":"0.0000000000000","RCS_SIZE":"LARGE","MEAN_ANOMALY":"271.6775","SITE":"AFETR","OBJECT_NAME":"STARLINK-3075","LAUNCH_DATE":"2021-11-13","OBJECT_ID":"2021-104B","RA_OF_ASC_NODE":"313.2015"},{"TIME_SYSTEM":"UTC","ELEMENT_SET_NO":"999","GP_ID":"234678032","TLE_LINE1":"1 49410U 21104C   23183.63854412 -.00000341  00000-0 -33326-5 0  9998","COUNTRY_CODE":"US","APOAPSIS":"540.422","INCLINATION":"53.2177","PERIAPSIS":"539.078","DECAY_DATE":null,"TLE_LINE2":"2 49410  53.2177 313.2405 0000971  86.3314 273.7789 15.08838541 91618","MEAN_ELEMENT_THEORY":"SGP4","EPHEMERIS_TYPE":"0","REV_AT_EPOCH":"9161","MEAN_MOTION_DDOT":"0.0000000000000","MEAN_ANOMALY":"273.7789","RCS_SIZE":"LARGE","OBJECT_NAME":"STARLINK-3147","SITE":"AFETR","LAUNCH_DATE":"2021-11-13","RA_OF_ASC_NODE":"313.2405","OBJECT_ID":"2021-104C","PERIOD":"95.438","CLASSIFICATION_TYPE":"U","EPOCH":"2023-07-02T15:19:30.211968","OBJECT_TYPE":"PAYLOAD","NORAD_CAT_ID":"49410","SEMIMAJOR_AXIS":"6917.885","MEAN_MOTION":"15.08838541","REF_FRAME":"TEME","BSTAR":"-0.00000333260000","ARG_OF_PERICENTER":"86.3314","MEAN_MOTION_DOT":"-0.00000341","CENTER_NAME":"EARTH","ECCENTRICITY":"0.00009710","FILE":"3947868"},{"EPOCH":"2023-07-02T10:22:41.742912","CLASSIFICATION_TYPE":"U","PERIOD":"95.438","REF_FRAME":"TEME","MEAN_MOTION":"15.08837676","SEMIMAJOR_AXIS":"6917.887","NORAD_CAT_ID":"49411","OBJECT_TYPE":"PAYLOAD","MEAN_MOTION_DOT":"0.00000748","ARG_OF_PERICENTER":"89.9350","BSTAR":"0.00006508300000","FILE":"3947642","ECCENTRICITY":"0.00009000","CENTER_NAME":"EARTH","GP_ID":"234671958","ELEMENT_SET_NO":"999","TIME_SYSTEM":"UTC","DECAY_DATE":null,"PERIAPSIS":"539.130","TLE_LINE1":"1 49411U 21104D   23183.43242758  .00000748  00000-0  65083-4 0  9994","APOAPSIS":"540.375","COUNTRY_CODE":"US","INCLINATION":"53.2181","MEAN_ANOMALY":"270.1745","RCS_SIZE":"LARGE","MEAN_MOTION_DDOT":"0.0000000000000","REV_AT_EPOCH":"9171","EPHEMERIS_TYPE":"0","MEAN_ELEMENT_THEORY":"SGP4","TLE_LINE2":"2 49411  53.2181 304.1562 0000900  89.9350 270.1745 15.08837676 91710","RA_OF_ASC_NODE":"304.1562","OBJECT_ID":"2021-104D","LAUNCH_DATE":"2021-11-13","SITE":"AFETR","OBJECT_NAME":"STARLINK-3162"},{"CENTER_NAME":"EARTH","ECCENTRICITY":"0.00004990","FILE":"3947515","BSTAR":"-0.00001480300000","MEAN_MOTION_DOT":"-0.00000523","ARG_OF_PERICENTER":"82.4774","OBJECT_TYPE":"PAYLOAD","NORAD_CAT_ID":"49412","REF_FRAME":"TEME","SEMIMAJOR_AXIS":"6917.937","MEAN_MOTION":"15.08821408","PERIOD":"95.439","CLASSIFICATION_TYPE":"U","EPOCH":"2023-07-02T09:01:51.868128","LAUNCH_DATE":"2021-11-13","SITE":"AFETR","OBJECT_NAME":"STARLINK-3144","RA_OF_ASC_NODE":"314.4072","OBJECT_ID":"2021-104E","MEAN_ELEMENT_THEORY":"SGP4","EPHEMERIS_TYPE":"0","TLE_LINE2":"2 49412  53.2179 314.4072 0000499  82.4774 277.6275 15.08821408 91580","RCS_SIZE":"LARGE","MEAN_ANOMALY":"277.6275","REV_AT_EPOCH":"9158","MEAN_MOTION_DDOT":"0.0000000000000","PERIAPSIS":"539.457","DECAY_DATE":null,"TLE_LINE1":"1 49412U 21104E   23183.37629477 -.00000523  00000-0 -14803-4 0  9992","APOAPSIS":"540.147","COUNTRY_CODE":"US","INCLINATION":"53.2179","GP_ID":"234668974","ELEMENT_SET_NO":"999","TIME_SYSTEM":"UTC"},{"REF_FRAME":"TEME","MEAN_MOTION":"15.08842392","SEMIMAJOR_AXIS":"6917.873","NORAD_CAT_ID":"49413","OBJECT_TYPE":"PAYLOAD","EPOCH":"2023-07-02T15:04:55.717824","CLASSIFICATION_TYPE":"U","PERIOD":"95.437","FILE":"3947872","ECCENTRICITY":"0.00008930","CENTER_NAME":"EARTH","MEAN_MOTION_DOT":"0.00001592","ARG_OF_PERICENTER":"87.7757","BSTAR":"0.00011804000000","PERIAPSIS":"539.120","DECAY_DATE":null,"COUNTRY_CODE":"US","TLE_LINE1":"1 49413U 21104F   23183.62842266  .00001592  00000-0  11804-3 0  9996","APOAPSIS":"540.356","INCLINATION":"53.2178","ELEMENT_SET_NO":"999","GP_ID":"234678093","TIME_SYSTEM":"UTC","RA_OF_ASC_NODE":"303.2872","OBJECT_ID":"2021-104F","LAUNCH_DATE":"2021-11-13","SITE":"AFETR","OBJECT_NAME":"STARLINK-3157","MEAN_ANOMALY":"272.3338","RCS_SIZE":"LARGE","MEAN_MOTION_DDOT":"0.0000000000000","REV_AT_EPOCH":"9175","EPHEMERIS_TYPE":"0","MEAN_ELEMENT_THEORY":"SGP4","TLE_LINE2":"2 49413  53.2178 303.2872 0000893  87.7757 272.3338 15.08842392 91757"},{"CENTER_NAME":"EARTH","FILE":"3947783","ECCENTRICITY":"0.00009710","BSTAR":"0.00000567960000","ARG_OF_PERICENTER":"91.5962","MEAN_MOTION_DOT":"-0.00000197","OBJECT_TYPE":"PAYLOAD","NORAD_CAT_ID":"49414","SEMIMAJOR_AXIS":"6917.884","MEAN_MOTION":"15.08838739","REF_FRAME":"TEME","PERIOD":"95.438","EPOCH":"2023-07-02T15:12:50.419296","CLASSIFICATION_TYPE":"U","SITE":"AFETR","OBJECT_NAME":"STARLINK-3146","LAUNCH_DATE":"2021-11-13","RA_OF_ASC_NODE":"313.2528","OBJECT_ID":"2021-104G","TLE_LINE2":"2 49414  53.2176 313.2528 0000971  91.5962 268.5142 15.08838739 91618","MEAN_ELEMENT_THEORY":"SGP4","EPHEMERIS_TYPE":"0","REV_AT_EPOCH":"9161","MEAN_MOTION_DDOT":"0.0000000000000","MEAN_ANOMALY":"268.5142","RCS_SIZE":"LARGE","COUNTRY_CODE":"US","TLE_LINE1":"1 49414U 21104G   23183.63391689 -.00000197  00000-0  56796-5 0  9998","APOAPSIS":"540.421","INCLINATION":"53.2176","PERIAPSIS":"539.078","DECAY_DATE":null,"TIME_SYSTEM":"UTC","ELEMENT_SET_NO":"999","GP_ID":"234675516"},{"BSTAR":"0.00010886000000","ARG_OF_PERICENTER":"87.3326","MEAN_MOTION_DOT":"0.00001445","CENTER_NAME":"EARTH","ECCENTRICITY":"0.00009050","FILE":"3947872","PERIOD":"95.437","EPOCH":"2023-07-02T14:58:15.101760","CLASSIFICATION_TYPE":"U","NORAD_CAT_ID":"49415","OBJECT_TYPE":"PAYLOAD","MEAN_MOTION":"15.08842416","SEMIMAJOR_AXIS":"6917.873","REF_FRAME":"TEME","TLE_LINE2":"2 49415  53.2190 303.2972 0000905  87.3326 272.7769 15.08842416 91744","EPHEMERIS_TYPE":"0","MEAN_ELEMENT_THEORY":"SGP4","MEAN_MOTION_DDOT":"0.0000000000000","REV_AT_EPOCH":"9174","MEAN_ANOMALY":"272.7769","RCS_SIZE":"LARGE","OBJECT_NAME":"STARLINK-3159","SITE":"AFETR","LAUNCH_DATE":"2021-11-13","RA_OF_ASC_NODE":"303.2972","OBJECT_ID":"2021-104H","TIME_SYSTEM":"UTC","ELEMENT_SET_NO":"999","GP_ID":"234677590","TLE_LINE1":"1 49415U 21104H   23183.62378590  .00001445  00000-0  10886-3 0  9998","APOAPSIS":"540.364","COUNTRY_CODE":"US","INCLINATION":"53.2190","DECAY_DATE":null,"PERIAPSIS":"539.112"},{"BSTAR":"0.00012031000000","ARG_OF_PERICENTER":"72.7101","MEAN_MOTION_DOT":"0.00001628","CENTER_NAME":"EARTH","ECCENTRICITY":"0.00010420","FILE":"3947872","PERIOD":"95.437","EPOCH":"2023-07-02T15:02:13.241760","CLASSIFICATION_TYPE":"U","NORAD_CAT_ID":"49416","OBJECT_TYPE":"PAYLOAD","MEAN_MOTION":"15.08848451","SEMIMAJOR_AXIS":"6917.855","REF_FRAME":"TEME","TLE_LINE2":"2 49416  53.2170 313.2836 0001042  72.7101 287.4005 15.08848451 91612","MEAN_ELEMENT_THEORY":"SGP4","EPHEMERIS_TYPE":"0","MEAN_MOTION_DDOT":"0.0000000000000","REV_AT_EPOCH":"9161","RCS_SIZE":"LARGE","MEAN_ANOMALY":"287.4005","OBJECT_NAME":"STARLINK-3133","SITE":"AFETR","LAUNCH_DATE":"2021-11-13","RA_OF_ASC_NODE":"313.2836","OBJECT_ID":"2021-104J","TIME_SYSTEM":"UTC","GP_ID":"234678098","ELEMENT_SET_NO":"999","TLE_LINE1":"1 49416U 21104J   23183.62654215  .00001628  00000-0  12031-3 0  9997","COUNTRY_CODE":"US","APOAPSIS":"540.440","INCLINATION":"53.2170","PERIAPSIS":"538.999","DECAY_DATE":null},{"ELEMENT_SET_NO":"999","GP_ID":"234659246","TIME_SYSTEM":"UTC","PERIAPSIS":"539.101","DECAY_DATE":null,"TLE_LINE1":"1 49417U 21104K   23182.76362789  .00000962  00000-0  78489-4 0  9994","APOAPSIS":"540.380","COUNTRY_CODE":"US","INCLINATION":"53.2168","EPHEMERIS_TYPE":"0","MEAN_ELEMENT_THEORY":"SGP4","TLE_LINE2":"2 49417  53.2168 307.2081 0000925  80.5999 279.5098 15.08841619 91631","RCS_SIZE":"LARGE","MEAN_ANOMALY":"279.5098","MEAN_MOTION_DDOT":"0.0000000000000","REV_AT_EPOCH":"9163","LAUNCH_DATE":"2021-11-13","OBJECT_NAME":"STARLINK-3154","SITE":"AFETR","OBJECT_ID":"2021-104K","RA_OF_ASC_NODE":"307.2081","PERIOD":"95.437","CLASSIFICATION_TYPE":"U","EPOCH":"2023-07-01T18:19:37.449696","NORAD_CAT_ID":"49417","OBJECT_TYPE":"PAYLOAD","REF_FRAME":"TEME","MEAN_MOTION":"15.08841619","SEMIMAJOR_AXIS":"6917.875","BSTAR":"0.00007848900000","MEAN_MOTION_DOT":"0.00000962","ARG_OF_PERICENTER":"80.5999","CENTER_NAME":"EARTH","FILE":"3947111","ECCENTRICITY":"0.00009250"},{"TIME_SYSTEM":"UTC","ELEMENT_SET_NO":"999","GP_ID":"234678123","TLE_LINE1":"1 49418U 21104L   23183.62286783  .00000149  00000-0  27444-4 0  9992","COUNTRY_CODE":"US","APOAPSIS":"540.391","INCLINATION":"53.2177","PERIAPSIS":"539.084","DECAY_DATE":null,"TLE_LINE2":"2 49418  53.2177 313.3027 0000945  87.3945 272.7156 15.08842595 91610","EPHEMERIS_TYPE":"0","MEAN_ELEMENT_THEORY":"SGP4","REV_AT_EPOCH":"9161","MEAN_MOTION_DDOT":"0.0000000000000","MEAN_ANOMALY":"272.7156","RCS_SIZE":"LARGE","OBJECT_NAME":"STARLINK-3111","SITE":"AFETR","LAUNCH_DATE":"2021-11-13","OBJECT_ID":"2021-104L","RA_OF_ASC_NODE":"313.3027","PERIOD":"95.437","EPOCH":"2023-07-02T14:56:55.780512","CLASSIFICATION_TYPE":"U","OBJECT_TYPE":"PAYLOAD","NORAD_CAT_ID":"49418","SEMIMAJOR_AXIS":"6917.872","MEAN_MOTION":"15.08842595","REF_FRAME":"TEME","BSTAR":"0.00002744400000","ARG_OF_PERICENTER":"87.3945","MEAN_MOTION_DOT":"0.00000149","CENTER_NAME":"EARTH","ECCENTRICITY":"0.00009450","FILE":"3947897"}];
